*******************************************************************************
Revised: Sep 12, 1996           Earth Barycenter                              3
 
 Dynamical point:
 ---------------
 The common point about which the Earth and Moon revolve (center of mass). This
 is approximately 4671 km from the center of the Earth, or about 3/4 of the way 
 to the surface. See 399 for Earth center, or 301 for Moon center ephemeris.

*******************************************************************************
 
 
*******************************************************************************
Ephemeris / WWW_USER Mon Jun 24 14:32:13 2013 Pasadena, USA      / Horizons    
*******************************************************************************
Target body name: Earth-Moon Barycenter (3)       {source: DE405}
Center body name: Solar System Barycenter (0)     {source: DE405}
Center-site name: BODY CENTER
*******************************************************************************
Start time      : A.D. 2024-Jun-11 00:00:00.0000 CT 
Stop  time      : A.D. 2024-Jun-14 00:00:00.0000 CT 
Step-size       : 60 minutes
*******************************************************************************
Center geodetic : 0.00000000,0.00000000,0.0000000 {E-lon(deg),Lat(deg),Alt(km)}
Center cylindric: 0.00000000,0.00000000,0.0000000 {E-lon(deg),Dxy(km),Dz(km)}
Center radii    : (undefined)                                                  
Output units    : KM-S                                                         
Output format   : 01
Reference frame : ICRF/J2000.0                                                 
Output type     : GEOMETRIC cartesian states
Coordinate systm: Ecliptic and Mean Equinox of Reference Epoch                 
*******************************************************************************
JDCT 
   X     Y     Z
*******************************************************************************
$$SOE
2460472.500000000 = A.D. 2024-Jun-11 00:00:00.0000 (CT)
  -2.681175145748967E+07 -1.502845889933567E+08  3.843823654634329E+04
2460472.541666667 = A.D. 2024-Jun-11 01:00:00.0000 (CT)
  -2.670776381352275E+07 -1.503031742575226E+08  3.843816765087850E+04
2460472.583333333 = A.D. 2024-Jun-11 02:00:00.0000 (CT)
  -2.660376358041832E+07 -1.503216860424413E+08  3.843809452411887E+04
2460472.625000000 = A.D. 2024-Jun-11 03:00:00.0000 (CT)
  -2.649975080937181E+07 -1.503401243400501E+08  3.843801716590337E+04
2460472.666666667 = A.D. 2024-Jun-11 04:00:00.0000 (CT)
  -2.639572555158312E+07 -1.503584891423213E+08  3.843793557608243E+04
2460472.708333333 = A.D. 2024-Jun-11 05:00:00.0000 (CT)
  -2.629168785825660E+07 -1.503767804412616E+08  3.843784975451101E+04
2460472.750000000 = A.D. 2024-Jun-11 06:00:00.0000 (CT)
  -2.618763778060102E+07 -1.503949982289123E+08  3.843775970104184E+04
2460472.791666667 = A.D. 2024-Jun-11 07:00:00.0000 (CT)
  -2.608357536982957E+07 -1.504131424973494E+08  3.843766541549989E+04
2460472.833333333 = A.D. 2024-Jun-11 08:00:00.0000 (CT)
  -2.597950067715981E+07 -1.504312132386837E+08  3.843756689777075E+04
2460472.875000000 = A.D. 2024-Jun-11 09:00:00.0000 (CT)
  -2.587541375381368E+07 -1.504492104450603E+08  3.843746414770039E+04
2460472.916666667 = A.D. 2024-Jun-11 10:00:00.0000 (CT)
  -2.577131465101745E+07 -1.504671341086591E+08  3.843735716513753E+04
2460472.958333333 = A.D. 2024-Jun-11 11:00:00.0000 (CT)
  -2.566720342000170E+07 -1.504849842216949E+08  3.843724594994736E+04
2460473.000000000 = A.D. 2024-Jun-11 12:00:00.0000 (CT)
  -2.556308011200133E+07 -1.505027607764165E+08  3.843713050199460E+04
2460473.041666667 = A.D. 2024-Jun-11 13:00:00.0000 (CT)
  -2.545894477825548E+07 -1.505204637651081E+08  3.843701082115679E+04
2460473.083333333 = A.D. 2024-Jun-11 14:00:00.0000 (CT)
  -2.535479747000758E+07 -1.505380931800880E+08  3.843688690727363E+04
2460473.125000000 = A.D. 2024-Jun-11 15:00:00.0000 (CT)
  -2.525063823850527E+07 -1.505556490137093E+08  3.843675876023002E+04
2460473.166666667 = A.D. 2024-Jun-11 16:00:00.0000 (CT)
  -2.514646713500039E+07 -1.505731312583598E+08  3.843662637988669E+04
2460473.208333333 = A.D. 2024-Jun-11 17:00:00.0000 (CT)
  -2.504228421074899E+07 -1.505905399064619E+08  3.843648976612218E+04
2460473.250000000 = A.D. 2024-Jun-11 18:00:00.0000 (CT)
  -2.493808951701127E+07 -1.506078749504726E+08  3.843634891881463E+04
2460473.291666667 = A.D. 2024-Jun-11 19:00:00.0000 (CT)
  -2.483388310505158E+07 -1.506251363828837E+08  3.843620383781940E+04
2460473.333333333 = A.D. 2024-Jun-11 20:00:00.0000 (CT)
  -2.472966502613839E+07 -1.506423241962215E+08  3.843605452303879E+04
2460473.375000000 = A.D. 2024-Jun-11 21:00:00.0000 (CT)
  -2.462543533154426E+07 -1.506594383830470E+08  3.843590097434741E+04
2460473.416666667 = A.D. 2024-Jun-11 22:00:00.0000 (CT)
  -2.452119407254584E+07 -1.506764789359558E+08  3.843574319161069E+04
2460473.458333333 = A.D. 2024-Jun-11 23:00:00.0000 (CT)
  -2.441694130042382E+07 -1.506934458475782E+08  3.843558117472059E+04
2460473.500000000 = A.D. 2024-Jun-12 00:00:00.0000 (CT)
  -2.431267706646293E+07 -1.507103391105793E+08  3.843541492356679E+04
2460473.541666667 = A.D. 2024-Jun-12 01:00:00.0000 (CT)
  -2.420840142195193E+07 -1.507271587176586E+08  3.843524443802306E+04
2460473.583333333 = A.D. 2024-Jun-12 02:00:00.0000 (CT)
  -2.410411441818354E+07 -1.507439046615504E+08  3.843506971799646E+04
2460473.625000000 = A.D. 2024-Jun-12 03:00:00.0000 (CT)
  -2.399981610645445E+07 -1.507605769350236E+08  3.843489076337314E+04
2460473.666666667 = A.D. 2024-Jun-12 04:00:00.0000 (CT)
  -2.389550653806533E+07 -1.507771755308818E+08  3.843470757404016E+04
2460473.708333333 = A.D. 2024-Jun-12 05:00:00.0000 (CT)
  -2.379118576432073E+07 -1.507937004419633E+08  3.843452014988918E+04
2460473.750000000 = A.D. 2024-Jun-12 06:00:00.0000 (CT)
  -2.368685383652912E+07 -1.508101516611409E+08  3.843432849082466E+04
2460473.791666667 = A.D. 2024-Jun-12 07:00:00.0000 (CT)
  -2.358251080600286E+07 -1.508265291813222E+08  3.843413259673696E+04
2460473.833333333 = A.D. 2024-Jun-12 08:00:00.0000 (CT)
  -2.347815672405814E+07 -1.508428329954496E+08  3.843393246752923E+04
2460473.875000000 = A.D. 2024-Jun-12 09:00:00.0000 (CT)
  -2.337379164201503E+07 -1.508590630964998E+08  3.843372810310236E+04
2460473.916666667 = A.D. 2024-Jun-12 10:00:00.0000 (CT)
  -2.326941561119736E+07 -1.508752194774844E+08  3.843351950337188E+04
2460473.958333333 = A.D. 2024-Jun-12 11:00:00.0000 (CT)
  -2.316502868293279E+07 -1.508913021314497E+08  3.843330666823556E+04
2460474.000000000 = A.D. 2024-Jun-12 12:00:00.0000 (CT)
  -2.306063090855274E+07 -1.509073110514766E+08  3.843308959758894E+04
2460474.041666667 = A.D. 2024-Jun-12 13:00:00.0000 (CT)
  -2.295622233939237E+07 -1.509232462306806E+08  3.843286829135901E+04
2460474.083333333 = A.D. 2024-Jun-12 14:00:00.0000 (CT)
  -2.285180302679057E+07 -1.509391076622120E+08  3.843264274945186E+04
2460474.125000000 = A.D. 2024-Jun-12 15:00:00.0000 (CT)
  -2.274737302208995E+07 -1.509548953392556E+08  3.843241297177451E+04
2460474.166666667 = A.D. 2024-Jun-12 16:00:00.0000 (CT)
  -2.264293237663678E+07 -1.509706092550311E+08  3.843217895826044E+04
2460474.208333333 = A.D. 2024-Jun-12 17:00:00.0000 (CT)
  -2.253848114178101E+07 -1.509862494027927E+08  3.843194070879669E+04
2460474.250000000 = A.D. 2024-Jun-12 18:00:00.0000 (CT)
  -2.243401936887620E+07 -1.510018157758293E+08  3.843169822332045E+04
2460474.291666667 = A.D. 2024-Jun-12 19:00:00.0000 (CT)
  -2.232954710927954E+07 -1.510173083674647E+08  3.843145150175302E+04
2460474.333333333 = A.D. 2024-Jun-12 20:00:00.0000 (CT)
  -2.222506441435184E+07 -1.510327271710569E+08  3.843120054401661E+04
2460474.375000000 = A.D. 2024-Jun-12 21:00:00.0000 (CT)
  -2.212057133545745E+07 -1.510480721799990E+08  3.843094535002437E+04
2460474.416666667 = A.D. 2024-Jun-12 22:00:00.0000 (CT)
  -2.201606792396428E+07 -1.510633433877186E+08  3.843068591971409E+04
2460474.458333333 = A.D. 2024-Jun-12 23:00:00.0000 (CT)
  -2.191155423124377E+07 -1.510785407876780E+08  3.843042225301448E+04
2460474.500000000 = A.D. 2024-Jun-13 00:00:00.0000 (CT)
  -2.180703030867088E+07 -1.510936643733742E+08  3.843015434982967E+04
2460474.541666667 = A.D. 2024-Jun-13 01:00:00.0000 (CT)
  -2.170249620762402E+07 -1.511087141383389E+08  3.842988221012765E+04
2460474.583333333 = A.D. 2024-Jun-13 02:00:00.0000 (CT)
  -2.159795197948509E+07 -1.511236900761385E+08  3.842960583382307E+04
2460474.625000000 = A.D. 2024-Jun-13 03:00:00.0000 (CT)
  -2.149339767563945E+07 -1.511385921803739E+08  3.842932522085529E+04
2460474.666666667 = A.D. 2024-Jun-13 04:00:00.0000 (CT)
  -2.138883334747582E+07 -1.511534204446809E+08  3.842904037114770E+04
2460474.708333333 = A.D. 2024-Jun-13 05:00:00.0000 (CT)
  -2.128425904638638E+07 -1.511681748627299E+08  3.842875128466204E+04
2460474.750000000 = A.D. 2024-Jun-13 06:00:00.0000 (CT)
  -2.117967482376664E+07 -1.511828554282260E+08  3.842845796131680E+04
2460474.791666667 = A.D. 2024-Jun-13 07:00:00.0000 (CT)
  -2.107508073101550E+07 -1.511974621349090E+08  3.842816040107058E+04
2460474.833333333 = A.D. 2024-Jun-13 08:00:00.0000 (CT)
  -2.097047681953515E+07 -1.512119949765533E+08  3.842785860385741E+04
2460474.875000000 = A.D. 2024-Jun-13 09:00:00.0000 (CT)
  -2.086586314073112E+07 -1.512264539469680E+08  3.842755256962594E+04
2460474.916666667 = A.D. 2024-Jun-13 10:00:00.0000 (CT)
  -2.076123974601223E+07 -1.512408390399971E+08  3.842724229832398E+04
2460474.958333333 = A.D. 2024-Jun-13 11:00:00.0000 (CT)
  -2.065660668679056E+07 -1.512551502495190E+08  3.842692778990889E+04
2460475.000000000 = A.D. 2024-Jun-13 12:00:00.0000 (CT)
  -2.055196401448141E+07 -1.512693875694470E+08  3.842660904431852E+04
2460475.041666667 = A.D. 2024-Jun-13 13:00:00.0000 (CT)
  -2.044731178050333E+07 -1.512835509937289E+08  3.842628606150029E+04
